[{"OBJECT_NAME":"STARLINK-4151","OBJECT_ID":"2022-076BA","EPOCH":"2026-03-09T10:25:48.368640","MEAN_MOTION":15.08841144,"ECCENTRICITY":0.00013481,"INCLINATION":53.2166,"RA_OF_ASC_NODE":75.3144,"ARG_OF_PERICENTER":87.2856,"MEAN_ANOMALY":272.8291,"EPHEMERIS_TYPE":0,"CLASSIFICATION_TYPE":"U","NORAD_CAT_ID":53034,"ELEMENT_SET_NO":999,"REV_AT_EPOCH":20308,"BSTAR":6.2340276e-5,"MEAN_MOTION_DOT":7.04e-6,"MEAN_MOTION_DDOT":0},{"OBJECT_NAME":"PSLV R\/B","OBJECT_ID":"2010-035F","EPOCH":"2026-03-09T21:32:02.806944","MEAN_MOTION":15.11637156,"ECCENTRICITY":0.00120112,"INCLINATION":97.9796,"RA_OF_ASC_NODE":355.2302,"ARG_OF_PERICENTER":197.9598,"MEAN_ANOMALY":162.1208,"EPHEMERIS_TYPE":0,"CLASSIFICATION_TYPE":"U","NORAD_CAT_ID":36800,"ELEMENT_SET_NO":999,"REV_AT_EPOCH":85407,"BSTAR":0.00037264097,"MEAN_MOTION_DOT":6.275e-5,"MEAN_MOTION_DDOT":0}]
